IXPE                    
1 49954U 21121A   23277.79518657  .00008838  00000+0  71581-3 0  9998
2 49954   0.2283 131.1494 0010245  82.0260 146.7599 14.94940544 99431
